1 42889U 17042BS  20106.53933346  .00002826  00000-0  70410-4 0  9994
2 42889  96.9030 338.0562 0010442 179.1223 181.0045 15.40952031154428
1 42889U 17042BS  20106.60427129  .00002767  00000-0  68987-4 0  9999
2 42889  96.9030 338.1176 0010449 178.8623 181.2651 15.40952264154431
1 42889U 17042BS  20107.38352388  .00002702  00000-0  67390-4 0  9995
2 42889  96.9031 338.8538 0010555 175.9774 184.1561 15.40956282154553
1 42889U 17042BS  20107.57833647  .00002804  00000-0  69876-4 0  9992
2 42889  96.9030 339.0379 0010581 175.2932 184.8417 15.40957782154582
1 42889U 17042BS  20107.90302403  .00002783  00000-0  69366-4 0  9990
2 42889  96.9031 339.3447 0010617 174.1175 186.0200 15.40959567154632
1 42889U 17042BS  20108.55239824  .00002498  00000-0  62427-4 0  9992
2 42889  96.9031 339.9583 0010696 171.7905 188.3520 15.40962259154733
1 42889U 17042BS  20108.61733558  .00002532  00000-0  63258-4 0  9994
2 42889  96.9031 340.0197 0010704 171.5424 188.6006 15.40962701154746
1 42889U 17042BS  20109.59139393  .00002195  00000-0  55075-4 0  9992
2 42889  96.9030 340.9401 0010827 168.0830 192.0676 15.40966899154890
1 42889U 17042BS  20109.85114233  .00002516  00000-0  62855-4 0  9998
2 42889  96.9030 341.1855 0010859 167.1568 192.9958 15.40969172154933
1 42889U 17042BS  20110.11089046  .00002504  00000-0  62559-4 0  9990
2 42889  96.9030 341.4309 0010890 166.2575 193.8971 15.40970564154979
1 42889U 17042BS  20110.17582772  .00002325  00000-0  58213-4 0  9993
2 42889  96.9029 341.4923 0010896 166.0217 194.1335 15.40970201154983
1 42889U 17042BS  20110.63038639  .00002442  00000-0  61051-4 0  9996
2 42889  96.9028 341.9218 0010953 164.4372 195.7215 15.40972864155052
1 42889U 17042BS  20111.66937491  .00002907  00000-0  72301-4 0  9990
2 42889  96.9026 342.9035 0011079 160.7820 199.3848 15.40979585155212
1 42889U 17042BS  20112.90316703  .00002991  00000-0  74319-4 0  9999
2 42889  96.9022 344.0693 0011230 156.4920 203.6843 15.40987496155408
1 42889U 17042BS  20113.09797596  .00003061  00000-0  75994-4 0  9992
2 42889  96.9022 344.2534 0011264 155.7669 204.4111 15.40989004155430
1 42889U 17042BS  20113.29278443  .00003704  00000-0  91569-4 0  9999
2 42889  96.9021 344.4374 0011285 155.1128 205.0666 15.40991725155468
1 42889U 17042BS  20113.87720910  .00003186  00000-0  79014-4 0  9999
2 42889  96.9019 344.9896 0011351 153.1747 207.0090 15.40994569155550
1 42889U 17042BS  20114.20188851  .00002788  00000-0  69382-4 0  9993
2 42889  96.9017 345.2964 0011391 152.0906 208.0955 15.40996279155604
1 42889U 17042BS  20114.39669613  .00002669  00000-0  66498-4 0  9996
2 42889  96.9017 345.4804 0011414 151.4389 208.7487 15.40997244155636
1 42889U 17042BS  20114.59150391  .00002936  00000-0  72953-4 0  9996
2 42889  96.9016 345.6644 0011424 150.7913 209.3975 15.40998547155664
1 42889U 17042BS  20114.65643973  .00002866  00000-0  71245-4 0  9991
2 42889  96.9016 345.7257 0011433 150.5760 209.6134 15.40998801155677
1 42889U 17042BS  20115.43566818  .00002675  00000-0  66628-4 0  9997
2 42889  96.9013 346.4619 0011523 147.9832 212.2118 15.41003054155797
1 42889U 17042BS  20115.89021744  .00002403  00000-0  60018-4 0  9997
2 42889  96.9012 346.8913 0011577 146.4725 213.7258 15.41004771155867
1 42889U 17042BS  20116.53957192  .00002426  00000-0  60565-4 0  9996
2 42889  96.9010 347.5047 0011647 144.2852 215.9177 15.41008430155967
1 42889U 17042BS  20116.66944268  .00002419  00000-0  60413-4 0  9994
2 42889  96.9009 347.6273 0011659 143.8507 216.3531 15.41009127155987
1 42889U 17042BS  20116.86424885  .00002338  00000-0  58433-4 0  9993
2 42889  96.9009 347.8114 0011684 143.1974 217.0078 15.41009790156017
1 42889U 17042BS  20117.38373131  .00002413  00000-0  60260-4 0  9993
2 42889  96.9008 348.3020 0011727 141.4806 218.7281 15.41012509156095
1 42889U 17042BS  20117.77334212  .00002636  00000-0  65650-4 0  9998
2 42889  96.9007 348.6700 0011760 140.2091 220.0021 15.41015337156159
1 42889U 17042BS  20118.35775721  .00002957  00000-0  73404-4 0  9999
2 42889  96.9007 349.2220 0011813 138.2633 221.9518 15.41019531156242
1 42889U 17042BS  20118.87723667  .00002751  00000-0  68414-4 0  9995
2 42889  96.9007 349.7127 0011857 136.5339 223.6846 15.41021705156323
1 42889U 17042BS  20119.07204110  .00002811  00000-0  69864-4 0  9992
2 42889  96.9007 349.8967 0011891 135.9217 224.2981 15.41022974156351
1 42889U 17042BS  20119.72138794  .00002970  00000-0  73696-4 0  9992
2 42889  96.9007 350.5101 0011944 133.8336 226.3901 15.41027220156453
1 42889U 17042BS  20120.11099424  .00003577  00000-0  88346-4 0  9995
2 42889  96.9007 350.8781 0011994 132.5967 227.6294 15.41031926156515
1 42889U 17042BS  20120.17592895  .00003516  00000-0  86886-4 0  9991
2 42889  96.9007 350.9394 0012014 132.3899 227.8367 15.41031780156524
1 42889U 17042BS  20120.89020293  .00005529  00000-0  13547-3 0  9997
2 42889  96.9007 351.6141 0012074 130.1018 230.1290 15.41043851156633
1 42889U 17042BS  20121.14993840  .00005279  00000-0  12943-3 0  9994
2 42889  96.9007 351.8594 0012087 129.2908 230.9414 15.41046149156671
1 42889U 17042BS  20121.73434257  .00004339  00000-0  10670-3 0  9992
2 42889  96.9008 352.4114 0012141 127.3832 232.8523 15.41049829156763
1 42889U 17042BS  20122.18887795  .00003576  00000-0  88275-4 0  9990
2 42889  96.9008 352.8408 0012165 125.9917 234.2461 15.41051772156832
1 42889U 17042BS  20122.38367886  .00003054  00000-0  75649-4 0  9998
2 42889  96.9008 353.0247 0012186 125.2836 234.9554 15.41051953156866
1 42889U 17042BS  20122.77327963  .00002999  00000-0  74314-4 0  9998
2 42889  96.9007 353.3928 0012205 124.0377 236.2031 15.41054765156929
1 42889U 17042BS  20123.42261157  .00004050  00000-0  99678-4 0  9993
2 42889  96.9010 354.0063 0012271 122.0148 238.2293 15.41062090157022
1 42889U 17042BS  20123.61741032  .00004722  00000-0  11589-3 0  9999
2 42889  96.9009 354.1903 0012268 121.4029 238.8420 15.41065579157057
1 42889U 17042BS  20123.94207481  .00005288  00000-0  12953-3 0  9994
2 42889  96.9009 354.4971 0012293 120.3304 239.9162 15.41069653157105
1 42889U 17042BS  20124.20180613  .00004971  00000-0  12188-3 0  9999
2 42889  96.9009 354.7424 0012307 119.5535 240.6941 15.41071349157146
1 42889U 17042BS  20124.65633534  .00004916  00000-0  12054-3 0  9994
2 42889  96.9009 355.1718 0012324 118.0817 242.1679 15.41075103157218
1 42889U 17042BS  20124.85113346  .00004379  00000-0  10757-3 0  9991
2 42889  96.9009 355.3559 0012339 117.4693 242.7811 15.41075406157247
1 42889U 17042BS  20125.56539133  .00002916  00000-0  72242-4 0  9999
2 42889  96.9005 356.0306 0012376 115.1897 245.0636 15.41077900157357
1 42889U 17042BS  20125.69525625  .00002780  00000-0  68958-4 0  9992
2 42889  96.9005 356.1533 0012383 114.7967 245.4571 15.41078390157379
1 42889U 17042BS  20125.89005337  .00002193  00000-0  54802-4 0  9998
2 42889  96.9005 356.3373 0012397 114.1820 246.0726 15.41077937157409
1 42889U 17042BS  20126.08485053  .00002185  00000-0  54606-4 0  9990
2 42889  96.9004 356.5214 0012411 113.5847 246.6705 15.41078952157437
1 42889U 17042BS  20126.86403740  .00002683  00000-0  66611-4 0  9991
2 42889  96.9002 357.2574 0012460 111.1315 249.1266 15.41084666157552
1 42889U 17042BS  20127.05883376  .00002739  00000-0  67957-4 0  9996
2 42889  96.9001 357.4414 0012474 110.5297 249.7291 15.41085939157584
1 42889U 17042BS  20127.18869765  .00003140  00000-0  77614-4 0  9994
2 42889  96.9000 357.5641 0012478 110.0741 250.1851 15.41087941157605
1 42889U 17042BS  20127.90294489  .00005392  00000-0  13189-3 0  9996
2 42889  96.8999 358.2389 0012504 107.8338 252.4275 15.41100196157719
1 42889U 17042BS  20128.09773950  .00005501  00000-0  13452-3 0  9997
2 42889  96.8997 358.4230 0012513 107.3064 252.9554 15.41102100157740
1 42889U 17042BS  20128.55225925  .00005055  00000-0  12374-3 0  9998
2 42889  96.8996 358.8523 0012534 105.9260 254.3370 15.41105887157818
1 42889U 17042BS  20128.87691596  .00004142  00000-0  10174-3 0  9996
2 42889  96.8994 359.1590 0012545 104.9081 255.3557 15.41106816157862
1 42889U 17042BS  20129.13664091  .00003672  00000-0  90410-4 0  9995
2 42889  96.8993 359.4043 0012548 104.1193 256.1450 15.41107722157909
1 42889U 17042BS  20129.33143451  .00003363  00000-0  82953-4 0  9999
2 42889  96.8992 359.5882 0012554 103.4980 256.7668 15.41108426157935
1 42889U 17042BS  20129.85088317  .00002935  00000-0  72621-4 0  9990
2 42889  96.8991   0.0787 0012573 101.8837 258.3822 15.41111089158019
1 42889U 17042BS  20130.37032975  .00003377  00000-0  83272-4 0  9993
2 42889  96.8989   0.5692 0012579 100.2287 260.0380 15.41116173158090
1 42889U 17042BS  20130.50019136  .00003281  00000-0  80952-4 0  9998
2 42889  96.8989   0.6919 0012577  99.8348 260.4321 15.41116793158112
1 42889U 17042BS  20130.75991389  .00003804  00000-0  93551-4 0  9994
2 42889  96.8987   0.9373 0012597  99.0670 261.2003 15.41119969158157
1 42889U 17042BS  20131.40921942  .00003653  00000-0  89898-4 0  9996
2 42889  96.8986   1.5505 0012602  97.1011 263.1670 15.41124386158256
1 42889U 17042BS  20131.66894128  .00003475  00000-0  85592-4 0  9998
2 42889  96.8985   1.7957 0012603  96.3279 263.9404 15.41125888158291
1 42889U 17042BS  20132.57796661  .00003016  00000-0  74527-4 0  9999
2 42889  96.8985   2.6542 0012610  93.5226 266.7465 15.41129896158437
1 42889U 17042BS  20132.70782709  .00002752  00000-0  68167-4 0  9991
2 42889  96.8985   2.7768 0012607  93.2090 267.0601 15.41130033158453
1 42889U 17042BS  20132.77275735  .00002702  00000-0  66965-4 0  9993
2 42889  96.8985   2.8382 0012606  93.0267 267.2423 15.41130223158465
1 42889U 17042BS  20133.16233864  .00002426  00000-0  60317-4 0  9992
2 42889  96.8985   3.2060 0012608  91.7942 268.4750 15.41131472158520
1 42889U 17042BS  20133.74671061  .00002784  00000-0  68935-4 0  9992
2 42889  96.8985   3.7580 0012580  89.6945 270.5745 15.41134485158615
1 42889U 17042BS  20133.81164006  .00001996  00000-0  49940-4 0  9995
2 42889  96.8985   3.8192 0012627  89.6446 270.6249 15.41133200158628
